[
    {
        "Altitude(m)": 558091.7373961203,
        "Argument of Periapsis(deg)": 0.019868973332140504,
        "Eccentricity": 0.0,
        "Inclination(deg)": 53.0,
        "Latitude(deg)": 45.2100128386298,
        "Longitude(deg)": 98.59942892709043,
        "Mean Anomaly(deg)": 117.54757860273277,
        "RAAN(deg)": 69.97043010558404,
        "Satellite Name": "Starlink Shell 1 313",
        "Satellite Number": 313,
        "Semi-Major Axis(m)": 6931778.249405717,
        "Time(s)": 570
    },
    {
        "Altitude(m)": 558017.1364071558,
        "Argument of Periapsis(deg)": 0.02021755181165174,
        "Eccentricity": 0.0,
        "Inclination(deg)": 53.0,
        "Latitude(deg)": 44.878658612330284,
        "Longitude(deg)": 99.3099747110936,
        "Mean Anomaly(deg)": 118.17440980628946,
        "RAAN(deg)": 69.96991133550658,
        "Satellite Name": "Starlink Shell 1 313",
        "Satellite Number": 313,
        "Semi-Major Axis(m)": 6931778.249405717,
        "Time(s)": 580
    },
    {
        "Altitude(m)": 557941.6199021062,
        "Argument of Periapsis(deg)": 0.020566130291162974,
        "Eccentricity": 0.0,
        "Inclination(deg)": 53.0,
        "Latitude(deg)": 44.54239306571048,
        "Longitude(deg)": 100.01188483802666,
        "Mean Anomaly(deg)": 118.8012410098462,
        "RAAN(deg)": 69.9693925654291,
        "Satellite Name": "Starlink Shell 1 313",
        "Satellite Number": 313,
        "Semi-Major Axis(m)": 6931778.249405717,
        "Time(s)": 590
    },
    {
        "Altitude(m)": 557865.2352179413,
        "Argument of Periapsis(deg)": 0.020914708770674213,
        "Eccentricity": 0.0,
        "Inclination(deg)": 53.0,
        "Latitude(deg)": 44.20132782360674,
        "Longitude(deg)": 100.7052357479556,
        "Mean Anomaly(deg)": 119.42807221340291,
        "RAAN(deg)": 69.96887379535163,
        "Satellite Name": "Starlink Shell 1 313",
        "Satellite Number": 313,
        "Semi-Major Axis(m)": 6931778.249405717,
        "Time(s)": 600
    },
    {
        "Altitude(m)": 557788.0303400713,
        "Argument of Periapsis(deg)": 0.021263287250185448,
        "Eccentricity": 0.0,
        "Inclination(deg)": 53.0,
        "Latitude(deg)": 43.85557285708603,
        "Longitude(deg)": 101.39010935110927,
        "Mean Anomaly(deg)": 120.0549034169596,
        "RAAN(deg)": 69.96835502527416,
        "Satellite Name": "Starlink Shell 1 313",
        "Satellite Number": 313,
        "Semi-Major Axis(m)": 6931778.249405717,
        "Time(s)": 610
    },
    {
        "Altitude(m)": 557710.0538783553,
        "Argument of Periapsis(deg)": 0.021611865729696686,
        "Eccentricity": 0.0,
        "Inclination(deg)": 53.0,
        "Latitude(deg)": 43.50523643506553,
        "Longitude(deg)": 102.06659307824044,
        "Mean Anomaly(deg)": 120.68173462051635,
        "RAAN(deg)": 69.96783625519669,
        "Satellite Name": "Starlink Shell 1 313",
        "Satellite Number": 313,
        "Semi-Major Axis(m)": 6931778.249405717,
        "Time(s)": 620
    },
    {
        "Altitude(m)": 557631.3550427295,
        "Argument of Periapsis(deg)": 0.02196044420920792,
        "Eccentricity": 0.0,
        "Inclination(deg)": 53.0,
        "Latitude(deg)": 43.15042508322308,
        "Longitude(deg)": 102.73477826775706,
        "Mean Anomaly(deg)": 121.30856582407304,
        "RAAN(deg)": 69.96731748511921,
        "Satellite Name": "Starlink Shell 1 313",
        "Satellite Number": 313,
        "Semi-Major Axis(m)": 6931778.249405717,
        "Time(s)": 630
    },
    {
        "Altitude(m)": 557551.9836185743,
        "Argument of Periapsis(deg)": 0.02230902268871916,
        "Eccentricity": 0.0,
        "Inclination(deg)": 53.0,
        "Latitude(deg)": 42.79124354977089,
        "Longitude(deg)": 103.39476109252094,
        "Mean Anomaly(deg)": 121.93539702762979,
        "RAAN(deg)": 69.96679871504175,
        "Satellite Name": "Starlink Shell 1 313",
        "Satellite Number": 313,
        "Semi-Major Axis(m)": 6931778.249405717,
        "Time(s)": 640
    },
    {
        "Altitude(m)": 557471.9899417066,
        "Argument of Periapsis(deg)": 0.022657601168230398,
        "Eccentricity": 0.0,
        "Inclination(deg)": 53.0,
        "Latitude(deg)": 42.42779477767034,
        "Longitude(deg)": 104.04664098369551,
        "Mean Anomaly(deg)": 122.5622282311865,
        "RAAN(deg)": 69.96627994496427,
        "Satellite Name": "Starlink Shell 1 313",
        "Satellite Number": 313,
        "Semi-Major Axis(m)": 6931778.249405717,
        "Time(s)": 650
    },
    {
        "Altitude(m)": 557391.4248730866,
        "Argument of Periapsis(deg)": 0.023006179647741636,
        "Eccentricity": 0.0,
        "Inclination(deg)": 53.0,
        "Latitude(deg)": 42.06017988287034,
        "Longitude(deg)": 104.69052075423724,
        "Mean Anomaly(deg)": 123.18905943474319,
        "RAAN(deg)": 69.96576117488678,
        "Satellite Name": "Starlink Shell 1 313",
        "Satellite Number": 313,
        "Semi-Major Axis(m)": 6931778.249405717,
        "Time(s)": 660
    },
    {
        "Altitude(m)": 557310.3397732397,
        "Argument of Periapsis(deg)": 0.023354758127252868,
        "Eccentricity": 0.0,
        "Inclination(deg)": 53.0,
        "Latitude(deg)": 41.68849813816167,
        "Longitude(deg)": 105.32650674108241,
        "Mean Anomaly(deg)": 123.81589063829993,
        "RAAN(deg)": 69.96524240480933,
        "Satellite Name": "Starlink Shell 1 313",
        "Satellite Number": 313,
        "Semi-Major Axis(m)": 6931778.249405717,
        "Time(s)": 670
    },
    {
        "Altitude(m)": 557228.7864763853,
        "Argument of Periapsis(deg)": 0.023703336606764106,
        "Eccentricity": 0.0,
        "Inclination(deg)": 53.0,
        "Latitude(deg)": 41.312846962251015,
        "Longitude(deg)": 105.95470745307003,
        "Mean Anomaly(deg)": 124.44272184185662,
        "RAAN(deg)": 69.96472363473184,
        "Satellite Name": "Starlink Shell 1 313",
        "Satellite Number": 313,
        "Semi-Major Axis(m)": 6931778.249405717,
        "Time(s)": 680
    },
    {
        "Altitude(m)": 557146.8172642897,
        "Argument of Periapsis(deg)": 0.024051915086275345,
        "Eccentricity": 0.0,
        "Inclination(deg)": 53.0,
        "Latitude(deg)": 40.933321913668266,
        "Longitude(deg)": 106.57523375016441,
        "Mean Anomaly(deg)": 125.06955304541333,
        "RAAN(deg)": 69.96420486465436,
        "Satellite Name": "Starlink Shell 1 313",
        "Satellite Number": 313,
        "Semi-Major Axis(m)": 6931778.249405717,
        "Time(s)": 690
    },
    {
        "Altitude(m)": 557064.4848398722,
        "Argument of Periapsis(deg)": 0.024400493565786583,
        "Eccentricity": 0.0,
        "Inclination(deg)": 53.0,
        "Latitude(deg)": 40.55001668913548,
        "Longitude(deg)": 107.18819904082719,
        "Mean Anomaly(deg)": 125.69638424897008,
        "RAAN(deg)": 69.9636860945769,
        "Satellite Name": "Starlink Shell 1 313",
        "Satellite Number": 313,
        "Semi-Major Axis(m)": 6931778.249405717,
        "Time(s)": 700
    },
    {
        "Altitude(m)": 556981.842300549,
        "Argument of Periapsis(deg)": 0.024749072045297815,
        "Eccentricity": 0.0,
        "Inclination(deg)": 53.0,
        "Latitude(deg)": 40.16302312604203,
        "Longitude(deg)": 107.79371798431204,
        "Mean Anomaly(deg)": 126.32321545252677,
        "RAAN(deg)": 69.96316732449942,
        "Satellite Name": "Starlink Shell 1 313",
        "Satellite Number": 313,
        "Semi-Major Axis(m)": 6931778.249405717,
        "Time(s)": 710
    },
    {
        "Altitude(m)": 556898.9431113672,
        "Argument of Periapsis(deg)": 0.025097650524809053,
        "Eccentricity": 0.0,
        "Inclination(deg)": 53.0,
        "Latitude(deg)": 39.7724312086807,
        "Longitude(deg)": 108.3919067232221,
        "Mean Anomaly(deg)": 126.95004665608346,
        "RAAN(deg)": 69.96264855442195,
        "Satellite Name": "Starlink Shell 1 313",
        "Satellite Number": 313,
        "Semi-Major Axis(m)": 6931778.249405717,
        "Time(s)": 720
    },
    {
        "Altitude(m)": 556815.8410778868,
        "Argument of Periapsis(deg)": 0.02544622900432029,
        "Eccentricity": 0.0,
        "Inclination(deg)": 53.0,
        "Latitude(deg)": 39.378329077920874,
        "Longitude(deg)": 108.98288313298326,
        "Mean Anomaly(deg)": 127.5768778596402,
        "RAAN(deg)": 69.96212978434448,
        "Satellite Name": "Starlink Shell 1 313",
        "Satellite Number": 313,
        "Semi-Major Axis(m)": 6931778.249405717,
        "Time(s)": 730
    },
    {
        "Altitude(m)": 556732.5903188767,
        "Argument of Periapsis(deg)": 0.02579480748383153,
        "Eccentricity": 0.0,
        "Inclination(deg)": 53.0,
        "Latitude(deg)": 38.98080304400645,
        "Longitude(deg)": 109.56676557485065,
        "Mean Anomaly(deg)": 128.20370906319692,
        "RAAN(deg)": 69.961611014267,
        "Satellite Name": "Starlink Shell 1 313",
        "Satellite Number": 313,
        "Semi-Major Axis(m)": 6931778.249405717,
        "Time(s)": 740
    },
    {
        "Altitude(m)": 556649.2452388058,
        "Argument of Periapsis(deg)": 0.026143385963342765,
        "Eccentricity": 0.0,
        "Inclination(deg)": 53.0,
        "Latitude(deg)": 38.579937602184216,
        "Longitude(deg)": 110.14367317765154,
        "Mean Anomaly(deg)": 128.83054026675367,
        "RAAN(deg)": 69.96109224418953,
        "Satellite Name": "Starlink Shell 1 313",
        "Satellite Number": 313,
        "Semi-Major Axis(m)": 6931778.249405717,
        "Time(s)": 750
    }
]